NORAD_CAT_ID,OBJECT_NAME,OBJECT_TYPE,EPOCH,MEAN_MOTION,ECCENTRICITY,INCLINATION,RA_OF_ASC_NODE,ARG_OF_PERICENTER,MEAN_ANOMALY,BSTAR,MEAN_MOTION_DOT,MEAN_MOTION_DDOT,TLE_LINE0,TLE_LINE1,TLE_LINE2,SEMIMAJOR_AXIS,PERIOD,APOGEE,PERIGEE,DECAYED
50173.0,STARLINK-3289,PAYLOAD,2024-05-13 21:04:05,15.08855649,0.0001248,53.217,343.6451,89.8589,270.2547,0.00098577,0.00015442,0.0,0 STARLINK-3289,1 50173U 21125T   24134.87784306  .00015442  00000-0  98577-3 0  9999,2 50173  53.2170 343.6451 0001248  89.8589 270.2547 15.08855649136383,6917.833,95.437,540.561,538.834,0.0
50173.0,STARLINK-3289,PAYLOAD,2024-05-14 06:36:23,15.08868259,0.0001266,53.2168,341.8607,88.2562,271.8575,0.00057795,8.929e-05,0.0,0 STARLINK-3289,1 50173U 21125T   24135.27527317  .00008929  00000-0  57795-3 0  9990,2 50173  53.2168 341.8607 0001266  88.2562 271.8575 15.08868259136443,6917.794,95.436,540.535,538.783,0.0
50173.0,STARLINK-3289,PAYLOAD,2024-05-14 22:30:13,15.08874033,0.0001372,53.2173,338.8867,86.337,273.7779,0.00042531,6.494e-05,0.0,0 STARLINK-3289,1 50173U 21125T   24135.93766096  .00006494  00000-0  42531-3 0  9999,2 50173  53.2173 338.8867 0001372  86.3370 273.7779 15.08874033136542,6917.776,95.435,540.59,538.692,0.0
50173.0,STARLINK-3289,PAYLOAD,2024-05-15 06:27:09,15.08865065,0.0001629,53.216,337.4003,89.7053,270.4126,0.00014406,2.007e-05,0.0,0 STARLINK-3289,1 50173U 21125T   24136.26885808  .00002007  00000-0  14406-3 0  9995,2 50173  53.2160 337.4003 0001629  89.7053 270.4126 15.08865065133503,6917.804,95.436,540.796,538.542,0.0
50173.0,STARLINK-3289,PAYLOAD,2024-05-15 22:20:59,15.08877953,0.0001317,53.217,334.4253,94.9773,265.1369,0.00041525,6.334e-05,0.0,0 STARLINK-3289,1 50173U 21125T   24136.93124381  .00006334  00000-0  41525-3 0  9990,2 50173  53.2170 334.4253 0001317  94.9773 265.1369 15.08877953136691,6917.764,95.435,540.54,538.718,0.0
50173.0,STARLINK-3289,PAYLOAD,2024-05-16 12:39:28,15.08843793,0.0002307,53.2172,331.748,73.798,286.3266,-0.00018602,-3.248e-05,0.0,0 STARLINK-3289,1 50173U 21125T   24137.52741484 -.00003248  00000-0 -18602-3 0  9998,2 50173  53.2172 331.7480 0002307  73.7980 286.3266 15.08843793133693,6917.869,95.437,541.33,538.138,0.0
50173.0,STARLINK-3289,PAYLOAD,2024-05-16 19:01:01,15.088425,0.0001621,53.2152,330.5613,78.2333,281.884,-0.00014154,-2.54e-05,0.0,0 STARLINK-3289,1 50173U 21125T   24137.79237409 -.00002540  00000-0 -14154-3 0  9996,2 50173  53.2152 330.5613 0001621  78.2333 281.8840 15.08842500136827,6917.873,95.437,540.859,538.616,0.0
50173.0,STARLINK-3289,PAYLOAD,2024-05-17 12:30:16,15.088299,9.66e-05,53.215,327.2912,72.3588,287.7509,-7.4503e-05,-1.473e-05,0.0,0 STARLINK-3289,1 50173U 21125T   24138.52102305 -.00001473  00000-0 -74503-4 0  9993,2 50173  53.2150 327.2912 0000966  72.3588 287.7509 15.08829900133843,6917.911,95.438,540.445,539.108,0.0
50173.0,STARLINK-3289,PAYLOAD,2024-05-17 18:51:49,15.08828294,0.0001005,53.2154,326.1018,70.0533,290.0567,-3.1203e-05,-7.84e-06,0.0,0 STARLINK-3289,1 50173U 21125T   24138.78598663 -.00000784  00000-0 -31203-4 0  9991,2 50173  53.2154 326.1018 0001005  70.0533 290.0567 15.08828294136975,6917.916,95.438,540.476,539.086,0.0
50173.0,STARLINK-3289,PAYLOAD,2024-05-18 05:59:31,15.08832863,0.0002162,53.2151,324.0185,99.6192,260.5045,0.00013855,1.917e-05,0.0,0 STARLINK-3289,1 50173U 21125T   24139.24966876  .00001917  00000-0  13855-3 0  9997,2 50173  53.2151 324.0185 0002162  99.6192 260.5045 15.08832863137046,6917.902,95.438,541.263,538.272,0.0
50173.0,STARLINK-3289,PAYLOAD,2024-05-18 18:42:35,15.08864488,9.64e-05,53.2145,321.6403,79.8608,280.2493,0.00077365,0.00012054,0.0,0 STARLINK-3289,1 50173U 21125T   24139.77957651  .00012054  00000-0  77365-3 0  9996,2 50173  53.2145 321.6403 0000964  79.8608 280.2493 15.08864488134035,6917.806,95.436,540.337,539.004,0.0
50173.0,STARLINK-3289,PAYLOAD,2024-05-19 18:33:23,15.08831143,0.0001325,53.2175,317.1788,68.8523,291.2611,-6.7128e-05,-1.356e-05,0.0,0 STARLINK-3289,1 50173U 21125T   24140.77319170 -.00001356  00000-0 -67128-4 0  9998,2 50173  53.2175 317.1788 0001325  68.8523 291.2611 15.08831143134182,6917.907,95.438,540.689,538.856,0.0
50173.0,STARLINK-3289,PAYLOAD,2024-05-20 16:48:47,15.08850509,0.0001406,53.216,313.0149,75.6495,284.4653,0.0005723,8.835e-05,0.0,0 STARLINK-3289,1 50173U 21125T   24141.70054875  .00008835  00000-0  57230-3 0  9999,2 50173  53.2160 313.0149 0001406  75.6495 284.4653 15.08850509134329,6917.848,95.437,540.686,538.741,0.0
50173.0,STARLINK-3289,PAYLOAD,2024-05-21 11:53:24,15.08846121,0.0001066,53.2167,309.446,51.1998,308.9089,0.00018761,2.7e-05,0.0,0 STARLINK-3289,1 50173U 21125T   24142.49542788  .00002700  00000-0  18761-3 0  9992,2 50173  53.2167 309.4460 0001066  51.1998 308.9089 15.08846121134443,6917.862,95.437,540.464,538.989,0.0
50173.0,STARLINK-3289,PAYLOAD,2024-05-21 18:14:57,15.08847954,0.0001091,53.2166,308.2583,90.105,270.0068,7.6825e-05,9.35e-06,0.0,0 STARLINK-3289,1 50173U 21125T   24142.76038575  .00000935  00000-0  76825-4 0  9990,2 50173  53.2166 308.2583 0001091  90.1050 270.0068 15.08847954137573,6917.856,95.437,540.476,538.966,0.0
50173.0,STARLINK-3289,PAYLOAD,2024-05-22 10:08:48,15.0883924,0.0001296,53.2171,305.2923,107.2275,252.8859,0.00032806,4.937e-05,0.0,0 STARLINK-3289,1 50173U 21125T   24143.42278902  .00004937  00000-0  32806-3 0  9990,2 50173  53.2171 305.2923 0001296 107.2275 252.8859 15.08839240134583,6917.883,95.438,540.644,538.851,0.0
50173.0,STARLINK-3289,PAYLOAD,2024-05-22 19:41:07,15.08838873,0.0001227,53.2172,303.5059,102.9563,257.1566,0.00013305,1.83e-05,0.0,0 STARLINK-3289,1 50173U 21125T   24143.82022957  .00001830  00000-0  13305-3 0  9993,2 50173  53.2172 303.5059 0001227 102.9563 257.1566 15.08838873137735,6917.884,95.438,540.598,538.9,0.0
50173.0,STARLINK-3289,PAYLOAD,2024-05-23 09:59:36,15.08840065,0.000136,53.2183,300.8302,90.5841,269.5307,6.0093e-05,6.69e-06,0.0,0 STARLINK-3289,1 50173U 21125T   24144.41639091  .00000669  00000-0  60093-4 0  9998,2 50173  53.2183 300.8302 0001360  90.5841 269.5307 15.08840065134730,6917.88,95.438,540.686,538.804,0.0
50173.0,STARLINK-3289,PAYLOAD,2024-05-23 14:45:45,15.08835302,0.0001289,53.2182,299.9361,99.0209,261.0929,3.7162e-05,3.04e-06,0.0,0 STARLINK-3289,1 50173U 21125T   24144.61511328  .00000304  00000-0  37162-4 0  9999,2 50173  53.2182 299.9361 0001289  99.0209 261.0929 15.08835302137855,6917.895,95.438,540.651,538.868,0.0
50173.0,STARLINK-3289,PAYLOAD,2024-05-23 19:31:54,15.08848989,0.0001229,53.2178,299.0391,92.8528,267.2605,0.00025015,3.696e-05,0.0,0 STARLINK-3289,1 50173U 21125T   24144.81382854  .00003696  00000-0  25015-3 0  9991,2 50173  53.2178 299.0391 0001229  92.8528 267.2605 15.08848989137880,6917.853,95.437,540.568,538.868,0.0
50173.0,STARLINK-3289,PAYLOAD,2024-05-24 14:36:32,15.0884409,0.0001464,53.2172,295.4708,118.7126,241.4014,0.0001579,2.226e-05,0.0,0 STARLINK-3289,1 50173U 21125T   24145.60870874  .00002226  00000-0  15790-3 0  9990,2 50173  53.2172 295.4708 0001464 118.7126 241.4014 15.08844090138001,6917.868,95.437,540.746,538.72,0.0
50173.0,STARLINK-3289,PAYLOAD,2024-05-24 19:22:41,15.08859105,0.0001347,53.2161,294.5788,123.0734,237.0387,0.00036424,5.517e-05,0.0,0 STARLINK-3289,1 50173U 21125T   24145.80742089  .00005517  00000-0  36424-3 0  9991,2 50173  53.2161 294.5788 0001347 123.0734 237.0387 15.08859105138031,6917.822,95.436,540.619,538.755,0.0
50173.0,STARLINK-3289,PAYLOAD,2024-05-25 14:27:19,15.08836506,0.0001656,53.2157,291.005,132.7242,227.389,-0.00011499,-2.117e-05,0.0,0 STARLINK-3289,1 50173U 21125T   24146.60231273 -.00002117  00000-0 -11499-3 0  9998,2 50173  53.2157 291.0050 0001656 132.7242 227.3890 15.08836506138158,6917.891,95.438,540.902,538.61,0.0
50173.0,STARLINK-3289,PAYLOAD,2024-05-25 19:13:29,15.08837742,0.0001036,53.2151,290.121,79.8622,280.2487,-1.6908e-06,-3.15e-06,0.0,0 STARLINK-3289,1 50173U 21125T   24146.80103513 -.00000315  00000-0 -16908-5 0  9995,2 50173  53.2151 290.1210 0001036  79.8622 280.2487 15.08837742135098,6917.887,95.438,540.469,539.036,0.0
50173.0,STARLINK-3289,PAYLOAD,2024-05-26 14:18:06,15.08847225,0.0001223,53.216,286.5529,70.3373,289.7751,3.0928e-05,2.04e-06,0.0,0 STARLINK-3289,1 50173U 21125T   24147.59591082  .00000204  00000-0  30928-4 0  9996,2 50173  53.2160 286.5529 0001223  70.3373 289.7751 15.08847225138309,6917.858,95.437,540.569,538.877,0.0
50173.0,STARLINK-3289,PAYLOAD,2024-05-26 15:53:29,15.08849677,9.11e-05,53.2158,286.255,98.5805,261.5291,7.5872e-05,9.2e-06,0.0,0 STARLINK-3289,1 50173U 21125T   24147.66215105  .00000920  00000-0  75872-4 0  9995,2 50173  53.2158 286.2550 0000911  98.5805 261.5291 15.08849677135220,6917.851,95.437,540.346,539.086,0.0
50173.0,STARLINK-3289,PAYLOAD,2024-05-27 12:33:31,15.08839191,0.0001242,53.2179,282.3896,97.1678,262.9456,0.00011638,1.565e-05,0.0,0 STARLINK-3289,1 50173U 21125T   24148.52327740  .00001565  00000-0  11638-3 0  9995,2 50173  53.2179 282.3896 0001242  97.1678 262.9456 15.08839191135356,6917.883,95.438,540.607,538.889,0.0
50173.0,STARLINK-3289,PAYLOAD,2024-05-27 14:08:54,15.08839519,0.0001258,53.2182,282.0925,99.3547,260.7588,0.00011214,1.497e-05,0.0,0 STARLINK-3289,1 50173U 21125T   24148.58951705  .00001497  00000-0  11214-3 0  9999,2 50173  53.2182 282.0925 0001258  99.3547 260.7588 15.08839519138456,6917.882,95.438,540.617,538.877,0.0
50173.0,STARLINK-3289,PAYLOAD,2024-05-27 15:44:17,15.08837859,0.0001224,53.2185,281.7944,91.4742,268.639,0.00011413,1.529e-05,0.0,0 STARLINK-3289,1 50173U 21125T   24148.65575770  .00001529  00000-0  11413-3 0  9998,2 50173  53.2185 281.7944 0001224  91.4742 268.6390 15.08837859138463,6917.887,95.438,540.599,538.905,0.0
50173.0,STARLINK-3289,PAYLOAD,2024-05-28 13:59:40,15.08847611,0.0001016,53.218,277.6285,87.5733,272.5375,3.2139e-05,2.24e-06,0.0,0 STARLINK-3289,1 50173U 21125T   24149.58311176  .00000224  00000-0  32139-4 0  9999,2 50173  53.2180 277.6285 0001016  87.5733 272.5375 15.08847611138605,6917.857,95.437,540.425,539.019,0.0
